COSMOS 2361 [-]         
1 25590U 98076A   15226.21161252  .00000053  00000-0  41615-4 0  9996
2 25590  82.9315 253.3278 0030527 316.8112 113.0211 13.72893413833598
COSMOS 2378 [-]         
1 26818U 01023A   15226.33979222  .00000015  00000-0  50316-6 0  9991
2 26818  82.9264 275.8832 0031563 272.3532  87.4014 13.73883064711146
COSMOS 2389 [-]         
1 27436U 02026A   15226.08083863  .00000034  00000-0  19021-4 0  9998
2 27436  82.9486 219.1572 0047197 147.2085 277.0607 13.74883046662976
COSMOS 2398 [-]         
1 27818U 03023A   15225.98221377  .00000013  00000-0 -27220-5 0  9991
2 27818  82.9487 172.7547 0031934 149.2054 211.0963 13.72111751610619
COSMOS 2407 [+]         
1 28380U 04028A   15226.09642456  .00000041  00000-0  25940-4 0  9996
2 28380  82.9617 126.5592 0039389 163.0251 197.2236 13.76007827555428
COSMOS 2414 [+]         
1 28521U 05002A   15226.78746762  .00000044  00000-0  23364-4 0  9998
2 28521  82.9509 157.0841 0041805  94.7567 265.8381 13.87549077535035
COSMOS 2429 [-]         
1 32052U 07038A   15226.13825302  .00000050  00000-0  35417-4 0  9999
2 32052  82.9776 243.5653 0039641 130.1979 291.2625 13.74854687397564
COSMOS 2454 [-]         
1 35635U 09039A   15226.87912811  .00000056  00000-0  32944-4 0  9993
2 35635  82.9575 148.0242 0020929  66.0309 294.3030 13.89574823307682
COSMOS 2463 [+]         
1 36519U 10017A   15226.55188911  .00000058  00000-0  47458-4 0  9992
2 36519  82.9602 278.1326 0035165 316.3622  43.4771 13.71382916265274
